STARLINK-31585          
1 59608U 24080H   26068.26676644 -.00007743  00000+0 -27197-3 0  9996
2 59608  43.0022  36.3479 0003717 254.4766 105.5675 15.27590267104520
FLOCK 4G-7              
1 62624U 25009R   26068.79996108  .00011422  00000+0  43168-3 0  9991
2 62624  97.3984 150.8270 0001396 336.9783  23.1393 15.27141471 63725
